ONEWEB-0326             
1 49195U 21083K   24053.81465537  .00000112  00000+0  25210-3 0  9991
2 49195  87.9231 143.7151 0002070 124.4604 235.6724 13.18685396119866
ONEWEB-0327             
1 49196U 21083L   24053.48506074  .00000031  00000+0  47028-4 0  9999
2 49196  87.9235 143.7913 0002110 117.4143 242.7204 13.18686933118568
ONEWEB-0328             
1 49197U 21083M   24053.49777062  .00000302  00000+0  79314-3 0  9991
2 49197  87.8976 128.5880 0001782 108.7464 251.3858 13.13471613119886
ONEWEB-0331             
1 49198U 21083N   24053.80833851  .00000061  00000+0  12193-3 0  9990
2 49198  87.9235 143.7083 0001828 112.6967 247.4358 13.18685510119871
ONEWEB-0333             
1 49199U 21083P   24053.56918821  .00000199  00000+0  50914-3 0  9990
2 49199  87.8986 128.5870 0001995  98.1117 262.0238 13.13469060119908
ONEWEB-0334             
1 49200U 21083Q   24053.58943723  .00000052  00000+0  96018-4 0  9998
2 49200  87.9124  82.7856 0002639  81.9416 278.2017 13.20771169125173
ONEWEB-0335             
1 49201U 21083R   24053.48826737  .00000208  00000+0  53343-3 0  9999
2 49201  87.8986 128.5918 0001723 104.2510 255.8811 13.13472109119905
ONEWEB-0336             
1 49202U 21083S   24053.76281520  .00000714  00000+0  19200-2 0  9991
2 49202  87.8985 128.5348 0002084 103.2732 256.8630 13.13465186121234
ONEWEB-0337             
1 49203U 21083T   24053.46748148 -.00000251  00000+0 -72099-3 0  9997
2 49203  87.8986 128.5922 0001735 106.7951 253.3369 13.13470597119899
ONEWEB-0338             
1 49204U 21083U   24053.82302347 -.00000027  00000+0 -97187-4 0  9992
2 49204  87.9128  82.7157 0002026  80.0150 280.1212 13.20771033126529
ONEWEB-0339             
1 49205U 21083V   24053.47872186 -.00000058  00000+0 -19249-3 0  9993
2 49205  87.8984 128.5873 0001739 103.9391 256.1931 13.13471876119870
ONEWEB-0340             
1 49206U 21083W   24053.49060050  .00000130  00000+0  29586-3 0  9999
2 49206  87.9236 143.7649 0001837 111.5026 248.6302 13.18686982118510
ONEWEB-0341             
1 49207U 21083X   24053.27086133 -.00001988  00000+0 -50760-2 0  9997
2 49207  87.9234 143.8235 0001143 104.5104 255.6155 13.18695591118509
ONEWEB-0342             
1 49208U 21083Y   24053.82933525 -.00000008  00000+0 -52864-4 0  9996
2 49208  87.9120  82.7343 0002020  87.3801 272.7563 13.20770980126491
ONEWEB-0343             
1 49209U 21083Z   24053.49377181  .00000080  00000+0  16983-3 0  9999
2 49209  87.9227 143.7936 0001209  98.0244 262.1025 13.18688193118582
ONEWEB-0344             
1 49210U 21083AA  24053.59774776 -.00000022  00000+0 -95004-4 0  9993
2 49210  87.8986 128.5780 0001880 111.8931 248.2398 13.13470505119899
ONEWEB-0345             
1 49211U 21083AB  24053.61519777 -.00000308  00000+0 -87844-3 0  9994
2 49211  87.8982 128.5527 0001511 119.9062 240.2218 13.13468138119904
ONEWEB-0346             
1 49212U 21083AC  24053.80675016 -.00000027  00000+0 -10018-3 0  9992
2 49212  87.9236 143.7262 0002044 119.6427 240.4909 13.18686527119859
ONEWEB-0348             
1 49213U 21083AD  24053.81986421  .00000047  00000+0  83305-4 0  9999
2 49213  87.9130  82.6976 0001606 116.1303 243.9996 13.20771062126522
ONEWEB-0350             
1 49214U 21083AE  24053.47237362 -.00000153  00000+0 -45501-3 0  9990
2 49214  87.8984 128.5724 0001609 113.9410 246.1888 13.13472080119917
ONEWEB-0351             
1 49215U 21083AF  24053.58628360  .00000116  00000+0  25343-3 0  9994
2 49215  87.9128  82.7484 0001909  81.1047 279.0302 13.20770631125158
ONEWEB-0352             
1 49216U 21083AG  24053.60568526 -.00000110  00000+0 -33749-3 0  9990
2 49216  87.8988 128.5739 0001882  96.1083 264.0261 13.13471365120023
ONEWEB-0354             
1 49217U 21083AH  24053.61153292  .00000044  00000+0  77350-4 0  9993
2 49217  87.9130  82.7244 0001553  92.6443 267.4868 13.20770448125197
ONEWEB-0355             
1 49218U 21083AJ  24053.71201625 -.00000012  00000+0 -67072-4 0  9996
2 49218  87.8985 128.5519 0001731 100.8333 259.2991 13.13471712121216
ONEWEB-0357             
1 49219U 21083AK  24053.60837408 -.00000027  00000+0 -97494-4 0  9996
2 49219  87.9126  82.7472 0001831  95.1991 264.9351 13.20770529125191
ONEWEB-0332             
1 49279U 21090A   24053.62616463 -.00000015  00000+0 -74352-4 0  9993
2 49279  87.8915  98.0250 0002238  91.4021 268.7365 13.14501579116491
ONEWEB-0347             
1 49280U 21090B   24053.59890473  .00000041  00000+0  69708-4 0  9992
2 49280  87.9129  82.7449 0002354  86.6557 273.4846 13.20770039119429
ONEWEB-0349             
1 49281U 21090C   24053.55471523  .00000080  00000+0  16473-3 0  9993
2 49281  87.9131  82.7517 0001676 100.0968 260.0355 13.20771492118208
ONEWEB-0353             
1 49282U 21090D   24053.54210494 -.00000403  00000+0 -11218-2 0  9993
2 49282  87.8916  98.0258 0002191  91.7113 268.4267 13.14501803116484
ONEWEB-0356             
1 49283U 21090E   24053.55313585  .00000075  00000+0  15353-3 0  9998
2 49283  87.9130  82.7477 0002606 112.5106 247.6303 13.20770672118203
ONEWEB-0358             
1 49284U 21090F   24053.58312568  .00000121  00000+0  26659-3 0  9995
2 49284  87.9131  82.7269 0001847 104.5339 255.5999 13.20770973118932
ONEWEB-0359             
1 49285U 21090G   24053.57997215  .00000108  00000+0  23345-3 0  9997
2 49285  87.9128  82.7477 0001418  97.8685 262.2609 13.20774533118919
ONEWEB-0360             
1 49286U 21090H   24053.64625836  .00000073  00000+0  14873-3 0  9990
2 49286  87.9129  82.7389 0001791  93.4192 266.7146 13.20770683119527
ONEWEB-0361             
1 49287U 21090J   24053.77883394  .00000089  00000+0  18688-3 0  9995
2 49287  87.9128  82.7068 0002052  96.7927 263.3440 13.20771071119537
ONEWEB-0362             
1 49288U 21090K   24053.44090385  .00000025  00000+0  29634-4 0  9994
2 49288  87.9157 113.3461 0001733  90.0596 270.0735 13.19724930115361
ONEWEB-0363             
1 49289U 21090L   24053.64310282  .00000124  00000+0  27333-3 0  9991
2 49289  87.9129  82.7289 0002090 106.2452 253.8911 13.20771485119522
ONEWEB-0364             
1 49290U 21090M   24053.52946528  .00000024  00000+0  26558-4 0  9996
2 49290  87.9131  82.7752 0002119  90.9648 269.1728 13.20770941119814
ONEWEB-0365             
1 49291U 21090N   24053.67783307 -.00000006  00000+0 -48114-4 0  9991
2 49291  87.9149 113.2869 0001911  95.6619 264.4731 13.19724414116194
ONEWEB-0366             
1 49292U 21090P   24053.61505273 -.00000427  00000+0 -11870-2 0  9994
2 49292  87.8919  98.0194 0002168  97.0950 263.0426 13.14501961117775
ONEWEB-0367             
1 49293U 21090Q   24053.79303615  .00000174  00000+0  39479-3 0  9993
2 49293  87.9129  82.6933 0002197  90.7134 269.4251 13.20771065119539
ONEWEB-0368             
1 49294U 21090R   24053.61469249  .00000025  00000+0  29328-4 0  9999
2 49294  87.9129  82.7584 0002821  96.9147 263.2308 13.20771077119368
ONEWEB-0369             
1 49295U 21090S   24053.67309373  .00000015  00000+0  47444-5 0  9996
2 49295  87.9157 113.2828 0002074  96.2407 263.8962 13.19724326116185
ONEWEB-0370             
1 49296U 21090T   24053.57523670  .00000075  00000+0  15224-3 0  9999
2 49296  87.9130  82.7408 0001949  95.2699 264.8657 13.20770841118249
ONEWEB-0371             
1 49297U 21090U   24053.68098746  .00000025  00000+0  29213-4 0  9992
2 49297  87.9158 113.2713 0001935  94.8171 265.3182 13.19724769116225
ONEWEB-0372             
1 49298U 21090V   24053.79132290  .00000142  00000+0  31718-3 0  9990
2 49298  87.9129  82.7055 0002006  88.7403 271.3960 13.20771630119543
ONEWEB-0373             
1 49299U 21090W   24053.59101657 -.00000838  00000+0 -20921-2 0  9999
2 49299  87.9129  82.7634 0002254  97.3470 262.7919 13.20775290119401
ONEWEB-0374             
1 49300U 21090X   24053.83072223 -.00000093  00000+0 -28465-3 0  9990
2 49300  87.8917  97.9631 0002102  97.3587 262.7781 13.14500764117796
ONEWEB-0375             
1 49301U 21090Y   24053.57839109  .00000112  00000+0  24432-3 0  9996
2 49301  87.9130  82.7413 0002141 115.0243 245.1113 13.20771037118903
ONEWEB-0376             
1 49302U 21090Z   24053.67940910 -.00000004  00000+0 -43285-4 0  9991
2 49302  87.9150 113.2875 0002070  91.6244 268.5126 13.19725170116219
ONEWEB-0377             
1 49303U 21090AA  24053.79159579  .00000144  00000+0  32321-3 0  9999
2 49303  87.9129  82.6900 0001670  96.6544 263.4780 13.20771299120206
ONEWEB-0378             
1 49304U 21090AB  24053.61549436  .00000053  00000+0  99271-4 0  9993
2 49304  87.9130  82.7400 0002223  97.5024 262.6362 13.20771998118168
ONEWEB-0379             
1 49305U 21090AC  24053.82597116 -.00000016  00000+0 -76586-4 0  9990
2 49305  87.8917  97.9664 0002065  96.8197 263.3167 13.14503528117804
ONEWEB-0380             
1 49306U 21090AD  24053.67624907  .00000013  00000+0  61959-6 0  9998
2 49306  87.9156 113.2853 0001841 101.4239 258.7100 13.19725701116183
ONEWEB-0381             
1 49307U 21090AE  24053.78830440  .00000112  00000+0  24264-3 0  9997
2 49307  87.9132  82.6971 0001841  95.7047 264.4296 13.20771262119537
ONEWEB-0382             
1 49308U 21090AF  24053.54840771  .00000068  00000+0  13406-3 0  9996
2 49308  87.9128  82.7431 0002264 105.0360 255.1024 13.20771127118195
ONEWEB-0383             
1 49309U 21090AG  24053.59127354  .00000021  00000+0  23010-4 0  9999
2 49309  87.8916  98.0043 0002215  99.3442 260.7938 13.14502793116504
ONEWEB-0384             
1 49310U 21090AH  24053.54524821  .00000115  00000+0  25139-3 0  9993
2 49310  87.9129  82.7533 0002327 107.1008 253.0380 13.20771219118200
ONEWEB-0385             
1 49311U 21090AJ  24053.54051241  .00000023  00000+0  24616-4 0  9993
2 49311  87.9131  82.7557 0002086 104.4931 255.6433 13.20771094118171
ONEWEB-0386             
1 49312U 21090AK  24053.55787227  .00000079  00000+0  16209-3 0  9994
2 49312  87.9123  82.7546 0002184 100.3194 259.8185 13.20770674118191
